CCSDS_OMM_VERS = 2.0
CREATION_DATE  = 
ORIGINATOR     = 

OBJECT_NAME    = COSMOS 2228
OBJECT_ID      = 1992-094A
CENTER_NAME    = EARTH
REF_FRAME      = TEME
TIME_SYSTEM    = UTC
MEAN_ELEMENT_THEORY = SGP/SGP4

EPOCH          = 2025-12-03T03:07:06.245760
MEAN_MOTION    = 14.96654800
ECCENTRICITY   = .0016286
INCLINATION    = 82.5170
RA_OF_ASC_NODE = 329.7301
ARG_OF_PERICENTER = 266.9305
MEAN_ANOMALY   = 93.0054

EPHEMERIS_TYPE = 0
CLASSIFICATION_TYPE = U
NORAD_CAT_ID   = 22286
ELEMENT_SET_NO = 999
REV_AT_EPOCH   = 76161
BSTAR          = .31542E-3
MEAN_MOTION_DOT = .3631E-4
MEAN_MOTION_DDOT = 0

CCSDS_OMM_VERS = 2.0
CREATION_DATE  = 
ORIGINATOR     = 

OBJECT_NAME    = SL-16 R/B
OBJECT_ID      = 1993-016B
CENTER_NAME    = EARTH
REF_FRAME      = TEME
TIME_SYSTEM    = UTC
MEAN_ELEMENT_THEORY = SGP/SGP4

EPOCH          = 2025-12-03T03:55:35.357088
MEAN_MOTION    = 14.15288680
ECCENTRICITY   = .0007838
INCLINATION    = 71.0091
RA_OF_ASC_NODE = 57.9155
ARG_OF_PERICENTER = 115.8651
MEAN_ANOMALY   = 244.3280

EPHEMERIS_TYPE = 0
CLASSIFICATION_TYPE = U
NORAD_CAT_ID   = 22566
ELEMENT_SET_NO = 999
REV_AT_EPOCH   = 68851
BSTAR          = -.67722E-4
MEAN_MOTION_DOT = -.179E-5
MEAN_MOTION_DDOT = 0

CCSDS_OMM_VERS = 2.0
CREATION_DATE  = 
ORIGINATOR     = 

OBJECT_NAME    = COSMOS 2242
OBJECT_ID      = 1993-024A
CENTER_NAME    = EARTH
REF_FRAME      = TEME
TIME_SYSTEM    = UTC
MEAN_ELEMENT_THEORY = SGP/SGP4

EPOCH          = 2025-12-03T03:19:10.708032
MEAN_MOTION    = 14.96041067
ECCENTRICITY   = .0014743
INCLINATION    = 82.5192
RA_OF_ASC_NODE = 359.0225
ARG_OF_PERICENTER = 269.8811
MEAN_ANOMALY   = 90.0721

EPHEMERIS_TYPE = 0
CLASSIFICATION_TYPE = U
NORAD_CAT_ID   = 22626
ELEMENT_SET_NO = 999
REV_AT_EPOCH   = 76595
BSTAR          = .27654E-3
MEAN_MOTION_DOT = .3135E-4
MEAN_MOTION_DDOT = 0

CCSDS_OMM_VERS = 2.0
CREATION_DATE  = 
ORIGINATOR     = 

OBJECT_NAME    = SL-16 R/B
OBJECT_ID      = 1993-059B
CENTER_NAME    = EARTH
REF_FRAME      = TEME
TIME_SYSTEM    = UTC
MEAN_ELEMENT_THEORY = SGP/SGP4

EPOCH          = 2025-12-03T01:29:50.148672
MEAN_MOTION    = 14.17209719
ECCENTRICITY   = .0017385
INCLINATION    = 70.9894
RA_OF_ASC_NODE = 214.8926
ARG_OF_PERICENTER = 349.8889
MEAN_ANOMALY   = 10.1882

EPHEMERIS_TYPE = 0
CLASSIFICATION_TYPE = U
NORAD_CAT_ID   = 22803
ELEMENT_SET_NO = 999
REV_AT_EPOCH   = 66584
BSTAR          = .16773E-3
MEAN_MOTION_DOT = .291E-5
MEAN_MOTION_DDOT = 0

CCSDS_OMM_VERS = 2.0
CREATION_DATE  = 
ORIGINATOR     = 

OBJECT_NAME    = ARIANE 40 R/B
OBJECT_ID      = 1993-061H
CENTER_NAME    = EARTH
REF_FRAME      = TEME
TIME_SYSTEM    = UTC
MEAN_ELEMENT_THEORY = SGP/SGP4

EPOCH          = 2025-12-03T04:34:37.695648
MEAN_MOTION    = 14.32790948
ECCENTRICITY   = .001034
INCLINATION    = 98.5089
RA_OF_ASC_NODE = 42.8939
ARG_OF_PERICENTER = 204.7753
MEAN_ANOMALY   = 155.2936

EPHEMERIS_TYPE = 0
CLASSIFICATION_TYPE = U
NORAD_CAT_ID   = 22830
ELEMENT_SET_NO = 999
REV_AT_EPOCH   = 68028
BSTAR          = .15303E-3
MEAN_MOTION_DOT = .374E-5
MEAN_MOTION_DDOT = 0

CCSDS_OMM_VERS = 2.0
CREATION_DATE  = 
ORIGINATOR     = 

OBJECT_NAME    = COSMOS 2278
OBJECT_ID      = 1994-023A
CENTER_NAME    = EARTH
REF_FRAME      = TEME
TIME_SYSTEM    = UTC
MEAN_ELEMENT_THEORY = SGP/SGP4

EPOCH          = 2025-12-03T03:06:25.998048
MEAN_MOTION    = 14.14350940
ECCENTRICITY   = .0008859
INCLINATION    = 71.0553
RA_OF_ASC_NODE = 17.1171
ARG_OF_PERICENTER = 194.0347
MEAN_ANOMALY   = 166.0531

EPHEMERIS_TYPE = 0
CLASSIFICATION_TYPE = U
NORAD_CAT_ID   = 23087
ELEMENT_SET_NO = 999
REV_AT_EPOCH   = 63115
BSTAR          = .21447E-4
MEAN_MOTION_DOT = -.6E-7
MEAN_MOTION_DDOT = 0

CCSDS_OMM_VERS = 2.0
CREATION_DATE  = 
ORIGINATOR     = 

OBJECT_NAME    = SL-16 R/B
OBJECT_ID      = 1994-023B
CENTER_NAME    = EARTH
REF_FRAME      = TEME
TIME_SYSTEM    = UTC
MEAN_ELEMENT_THEORY = SGP/SGP4

EPOCH          = 2025-12-03T03:35:03.215328
MEAN_MOTION    = 14.14997580
ECCENTRICITY   = .0001063
INCLINATION    = 71.0001
RA_OF_ASC_NODE = 273.6252
ARG_OF_PERICENTER = 74.7894
MEAN_ANOMALY   = 285.3346

EPHEMERIS_TYPE = 0
CLASSIFICATION_TYPE = U
NORAD_CAT_ID   = 23088
ELEMENT_SET_NO = 999
REV_AT_EPOCH   = 63243
BSTAR          = .2155E-3
MEAN_MOTION_DOT = .37E-5
MEAN_MOTION_DDOT = 0

CCSDS_OMM_VERS = 2.0
CREATION_DATE  = 
ORIGINATOR     = 

OBJECT_NAME    = SL-16 R/B
OBJECT_ID      = 1994-074B
CENTER_NAME    = EARTH
REF_FRAME      = TEME
TIME_SYSTEM    = UTC
MEAN_ELEMENT_THEORY = SGP/SGP4

EPOCH          = 2025-12-03T01:38:24.371232
MEAN_MOTION    = 14.79271366
ECCENTRICITY   = .0006824
INCLINATION    = 97.7213
RA_OF_ASC_NODE = 6.7570
ARG_OF_PERICENTER = 164.3003
MEAN_ANOMALY   = 249.4630

EPHEMERIS_TYPE = 0
CLASSIFICATION_TYPE = U
NORAD_CAT_ID   = 23343
ELEMENT_SET_NO = 999
REV_AT_EPOCH   = 67296
BSTAR          = .10169E-3
MEAN_MOTION_DOT = .707E-5
MEAN_MOTION_DDOT = 0

CCSDS_OMM_VERS = 2.0
CREATION_DATE  = 
ORIGINATOR     = 

OBJECT_NAME    = SL-16 R/B
OBJECT_ID      = 1994-077B
CENTER_NAME    = EARTH
REF_FRAME      = TEME
TIME_SYSTEM    = UTC
MEAN_ELEMENT_THEORY = SGP/SGP4

EPOCH          = 2025-12-03T02:20:58.764768
MEAN_MOTION    = 14.15545606
ECCENTRICITY   = .0004575
INCLINATION    = 70.9810
RA_OF_ASC_NODE = 195.6975
ARG_OF_PERICENTER = 291.6112
MEAN_ANOMALY   = 68.4523

EPHEMERIS_TYPE = 0
CLASSIFICATION_TYPE = U
NORAD_CAT_ID   = 23405
ELEMENT_SET_NO = 999
REV_AT_EPOCH   = 60256
BSTAR          = .29518E-5
MEAN_MOTION_DOT = -.42E-6
MEAN_MOTION_DDOT = 0

CCSDS_OMM_VERS = 2.0
CREATION_DATE  = 
ORIGINATOR     = 

OBJECT_NAME    = ARIANE 40+ R/B
OBJECT_ID      = 1995-021B
CENTER_NAME    = EARTH
REF_FRAME      = TEME
TIME_SYSTEM    = UTC
MEAN_ELEMENT_THEORY = SGP/SGP4

EPOCH          = 2025-12-03T04:58:05.721888
MEAN_MOTION    = 14.39683199
ECCENTRICITY   = .0007735
INCLINATION    = 98.4664
RA_OF_ASC_NODE = 44.9105
ARG_OF_PERICENTER = 74.7841
MEAN_ANOMALY   = 304.2339

EPHEMERIS_TYPE = 0
CLASSIFICATION_TYPE = U
NORAD_CAT_ID   = 23561
ELEMENT_SET_NO = 999
REV_AT_EPOCH   = 60536
BSTAR          = .16099E-3
MEAN_MOTION_DOT = .46E-5
MEAN_MOTION_DDOT = 0

CCSDS_OMM_VERS = 2.0
CREATION_DATE  = 
ORIGINATOR     = 

OBJECT_NAME    = SL-16 R/B
OBJECT_ID      = 1995-058B
CENTER_NAME    = EARTH
REF_FRAME      = TEME
TIME_SYSTEM    = UTC
MEAN_ELEMENT_THEORY = SGP/SGP4

EPOCH          = 2025-12-03T04:05:56.967072
MEAN_MOTION    = 14.15478198
ECCENTRICITY   = .0014887
INCLINATION    = 71.0224
RA_OF_ASC_NODE = 22.8949
ARG_OF_PERICENTER = 267.2414
MEAN_ANOMALY   = 92.7005

EPHEMERIS_TYPE = 0
CLASSIFICATION_TYPE = U
NORAD_CAT_ID   = 23705
ELEMENT_SET_NO = 999
REV_AT_EPOCH   = 55419
BSTAR          = .20307E-3
MEAN_MOTION_DOT = .35E-5
MEAN_MOTION_DDOT = 0

CCSDS_OMM_VERS = 2.0
CREATION_DATE  = 
ORIGINATOR     = 

OBJECT_NAME    = SL-16 R/B
OBJECT_ID      = 1996-051B
CENTER_NAME    = EARTH
REF_FRAME      = TEME
TIME_SYSTEM    = UTC
MEAN_ELEMENT_THEORY = SGP/SGP4

EPOCH          = 2025-12-03T03:21:43.966944
MEAN_MOTION    = 14.12394920
ECCENTRICITY   = .0019159
INCLINATION    = 70.7602
RA_OF_ASC_NODE = 19.6038
ARG_OF_PERICENTER = 273.2195
MEAN_ANOMALY   = 86.6732

EPHEMERIS_TYPE = 0
CLASSIFICATION_TYPE = U
NORAD_CAT_ID   = 24298
ELEMENT_SET_NO = 999
REV_AT_EPOCH   = 50801
BSTAR          = .36055E-4
MEAN_MOTION_DOT = .17E-6
MEAN_MOTION_DDOT = 0

