COSMOS 2228             
1 22286U 92094A   25337.12993340  .00003631  00000+0  31542-3 0  9995
2 22286  82.5170 329.7301 0016286 266.9305  93.0054 14.96654800761619
SL-16 R/B               
1 22566U 93016B   25337.16360367 -.00000179  00000+0 -67722-4 0  9998
2 22566  71.0091  57.9155 0007838 115.8651 244.3280 14.15288680688510
COSMOS 2242             
1 22626U 93024A   25337.13831838  .00003135  00000+0  27654-3 0  9999
2 22626  82.5192 359.0225 0014743 269.8811  90.0721 14.96041067765956
SL-16 R/B               
1 22803U 93059B   25337.06238598  .00000291  00000+0  16773-3 0  9990
2 22803  70.9894 214.8926 0017385 349.8889  10.1882 14.17209719665849
ARIANE 40 R/B           
1 22830U 93061H   25337.19071407  .00000374  00000+0  15303-3 0  9991
2 22830  98.5089  42.8939 0010340 204.7753 155.2936 14.32790948680289
COSMOS 2278             
1 23087U 94023A   25337.12946757 -.00000006  00000+0  21447-4 0  9997
2 23087  71.0553  17.1171 0008859 194.0347 166.0531 14.14350940631158
SL-16 R/B               
1 23088U 94023B   25337.14934277  .00000370  00000+0  21550-3 0  9991
2 23088  71.0001 273.6252 0001063  74.7894 285.3346 14.14997580632435
SL-16 R/B               
1 23343U 94074B   25337.06833763  .00000707  00000+0  10169-3 0  9998
2 23343  97.7213   6.7570 0006824 164.3003 249.4630 14.79271366672962
SL-16 R/B               
1 23405U 94077B   25337.09790237 -.00000042  00000+0  29518-5 0  9994
2 23405  70.9810 195.6975 0004575 291.6112  68.4523 14.15545606602560
ARIANE 40+ R/B          
1 23561U 95021B   25337.20701067  .00000460  00000+0  16099-3 0  9994
2 23561  98.4664  44.9105 0007735  74.7841 304.2339 14.39683199605369
SL-16 R/B               
1 23705U 95058B   25337.17079823  .00000350  00000+0  20307-3 0  9993
2 23705  71.0224  22.8949 0014887 267.2414  92.7005 14.15478198554198
SL-16 R/B               
1 24298U 96051B   25337.14009221  .00000017  00000+0  36055-4 0  9995
2 24298  70.7602  19.6038 0019159 273.2195  86.6732 14.12394920508011
